[{"OBJECT_NAME":"OBJECT A","OBJECT_ID":"2025-013A","EPOCH":"2026-03-09T23:29:31.895232","MEAN_MOTION":15.29260221,"ECCENTRICITY":0.0010321,"INCLINATION":97.6364,"RA_OF_ASC_NODE":244.5149,"ARG_OF_PERICENTER":282.3775,"MEAN_ANOMALY":77.6309,"EPHEMERIS_TYPE":0,"CLASSIFICATION_TYPE":"U","NORAD_CAT_ID":62729,"ELEMENT_SET_NO":999,"REV_AT_EPOCH":6276,"BSTAR":0.0013206527,"MEAN_MOTION_DOT":0.00037616,"MEAN_MOTION_DDOT":0},{"OBJECT_NAME":"STARLINK-33777","OBJECT_ID":"2025-093H","EPOCH":"2026-03-09T10:01:33.985344","MEAN_MOTION":15.27563587,"ECCENTRICITY":0.00011492,"INCLINATION":43.0024,"RA_OF_ASC_NODE":79.1697,"ARG_OF_PERICENTER":222.3883,"MEAN_ANOMALY":137.688,"EPHEMERIS_TYPE":0,"CLASSIFICATION_TYPE":"U","NORAD_CAT_ID":63843,"ELEMENT_SET_NO":999,"REV_AT_EPOCH":4793,"BSTAR":0.00043491744,"MEAN_MOTION_DOT":0.00011719,"MEAN_MOTION_DDOT":0}]
